CTC1_L_00474001-01
1 13956U 22369VG  26070.40837963  .00000000  00000+0  00000-0 0  9990
2 13956  43.0000   0.0000 0000000   0.0000   0.0000 15.38683946    17
CTC1_L_00474002-01
1 13957U 23084OD  26070.40837963  .00000000  00000+0  00000-0 0  9996
2 13957  43.0000  12.0000 0000000   0.0000  48.0000 15.38683946    13
CTC1_L_00474003-01
1 13958U 24131LK  26070.40837963  .00000000  00000+0  00000-0 0  9991
2 13958  43.0000  24.0000 0000000   0.0000  96.0000 15.38683946    10
CTC1_L_00474004-01
1 13959U 26818GJ  26070.40837963  .00000000  00000+0  00000-0 0  9996
2 13959  43.0000  36.0000 0000000   0.0000 144.0000 15.38683946    18
CTC1_L_00474005-01
1 13960U 24042RT  26070.40837963  .00000000  00000+0  00000-0 0  9995
2 13960  43.0000  48.0000 0000000   0.0000 192.0000 15.38683946    16
CTC1_L_00474006-01
1 13961U 26162UA  26070.40837963  .00000000  00000+0  00000-0 0  9991
2 13961  43.0000  60.0000 0000000   0.0000 240.0000 15.38683946    15
CTC1_L_00474007-01
1 13962U 26963OB  26070.40837963  .00000000  00000+0  00000-0 0  9991
2 13962  43.0000  72.0000 0000000   0.0000 288.0000 15.38683946    11
CTC1_L_00474008-01
1 13963U 24363JJ  26070.40837963  .00000000  00000+0  00000-0 0  9994
2 13963  43.0000  84.0000 0000000   0.0000 336.0000 15.38683946    19
CTC1_L_00474009-01
1 13964U 26021OA  26070.40837963  .00000000  00000+0  00000-0 0  9998
2 13964  43.0000  96.0000 0000000   0.0000  24.0000 15.38683946    17
CTC1_L_00474010-01
1 13965U 26471MB  26070.40837963  .00000000  00000+0  00000-0 0  9998
2 13965  43.0000 108.0000 0000000   0.0000  72.0000 15.38683946    15
CTC1_L_00474011-01
1 13966U 24456VY  26070.40837963  .00000000  00000+0  00000-0 0  9990
2 13966  43.0000 120.0000 0000000   0.0000 120.0000 15.38683946    14
CTC1_L_00474012-01
1 13967U 23042G   26070.40837963  .00000000  00000+0  00000-0 0  9991
2 13967  43.0000 132.0000 0000000   0.0000 168.0000 15.38683946    10
CTC1_L_00474013-01
1 13968U 24121JZ  26070.40837963  .00000000  00000+0  00000-0 0  9991
2 13968  43.0000 144.0000 0000000   0.0000 216.0000 15.38683946    18
CTC1_L_00474014-01
1 13969U 23077TV  26070.40837963  .00000000  00000+0  00000-0 0  9991
2 13969  43.0000 156.0000 0000000   0.0000 264.0000 15.38683946    15
CTC1_L_00474015-01
1 13970U 25950EG  26070.40837963  .00000000  00000+0  00000-0 0  9995
2 13970  43.0000 168.0000 0000000   0.0000 312.0000 15.38683946    14
CTC1_L_00474016-01
1 13971U 23198MN  26070.40837963  .00000000  00000+0  00000-0 0  9998
2 13971  43.0000 180.0000 0000000   0.0000   0.0000 15.38683946    13
CTC1_L_00474017-01
1 13972U 26308PW  26070.40837963  .00000000  00000+0  00000-0 0  9995
2 13972  43.0000 192.0000 0000000   0.0000  48.0000 15.38683946    19
CTC1_L_00474018-01
1 13973U 24238YL  26070.40837963  .00000000  00000+0  00000-0 0  9996
2 13973  43.0000 204.0000 0000000   0.0000  96.0000 15.38683946    17
CTC1_L_00474019-01
1 13974U 23231WI  26070.40837963  .00000000  00000+0  00000-0 0  9999
2 13974  43.0000 216.0000 0000000   0.0000 144.0000 15.38683946    15
CTC1_L_00474020-01
1 13975U 24345ZD  26070.40837963  .00000000  00000+0  00000-0 0  9997
2 13975  43.0000 228.0000 0000000   0.0000 192.0000 15.38683946    12
CTC1_L_00474021-01
1 13976U 22310JE  26070.40837963  .00000000  00000+0  00000-0 0  9998
2 13976  43.0000 240.0000 0000000   0.0000 240.0000 15.38683946    11
CTC1_L_00474022-01
1 13977U 24590AP  26070.40837963  .00000000  00000+0  00000-0 0  9991
2 13977  43.0000 252.0000 0000000   0.0000 288.0000 15.38683946    17
CTC1_L_00474023-01
1 13978U 22905BU  26070.40837963  .00000000  00000+0  00000-0 0  9990
2 13978  43.0000 264.0000 0000000   0.0000 336.0000 15.38683946    15
CTC1_L_00474024-01
1 13979U 26614OF  26070.40837963  .00000000  00000+0  00000-0 0  9992
2 13979  43.0000 276.0000 0000000   0.0000  24.0000 15.38683946    13
CTC1_L_00474025-01
1 13980U 22600UD  26070.40837963  .00000000  00000+0  00000-0 0  9995
2 13980  43.0000 288.0000 0000000   0.0000  72.0000 15.38683946    11
CTC1_L_00474026-01
1 13981U 25123WH  26070.40837963  .00000000  00000+0  00000-0 0  9999
2 13981  43.0000 300.0000 0000000   0.0000 120.0000 15.38683946    11
CTC1_L_00474027-01
1 13982U 26969SG  26070.40837963  .00000000  00000+0  00000-0 0  9999
2 13982  43.0000 312.0000 0000000   0.0000 168.0000 15.38683946    17
CTC1_L_00474028-01
1 13983U 23696SF  26070.40837963  .00000000  00000+0  00000-0 0  9994
2 13983  43.0000 324.0000 0000000   0.0000 216.0000 15.38683946    15
CTC1_L_00474029-01
1 13984U 25996BB  26070.40837963  .00000000  00000+0  00000-0 0  9990
2 13984  43.0000 336.0000 0000000   0.0000 264.0000 15.38683946    12
CTC1_L_00474030-01
1 13985U 25303DK  26070.40837963  .00000000  00000+0  00000-0 0  9993
2 13985  43.0000 348.0000 0000000   0.0000 312.0000 15.38683946    10
